$$SOE
2460728.500000000, A.D. 2025-Feb-22 00:00:00.0000, -8.481202205841830E+07, 6.882975784424932E+07, -1.284435248169205E+07,
2460735.500000000, A.D. 2025-Mar-01 00:00:00.0000, -1.027695158886794E+08, 5.812544802977215E+07, -1.239532686525286E+07,
2460742.500000000, A.D. 2025-Mar-08 00:00:00.0000, -1.177506533076723E+08, 4.571595285952736E+07, -1.158437321765765E+07,
2460749.500000000, A.D. 2025-Mar-15 00:00:00.0000, -1.299320105057226E+08, 3.220591886230079E+07, -1.049612001378741E+07,
2460756.500000000, A.D. 2025-Mar-22 00:00:00.0000, -1.395073261063112E+08, 1.804094998238305E+07, -9.196103444658846E+06,
2460763.500000000, A.D. 2025-Mar-29 00:00:00.0000, -1.466638322399965E+08, 3.556920377605934E+06, -7.735774199276084E+06,
2460770.500000000, A.D. 2025-Apr-05 00:00:00.0000, -1.515733616439231E+08, -1.098611027584783E+07, -6.156317453999375E+06,
2460777.500000000, A.D. 2025-Apr-12 00:00:00.0000, -1.543901023309186E+08, -2.538075179200001E+07, -4.491430976881796E+06,
2460784.500000000, A.D. 2025-Apr-19 00:00:00.0000, -1.552511733043768E+08, -3.945632917101645E+07, -2.769346400855027E+06,
2460791.500000000, A.D. 2025-Apr-26 00:00:00.0000, -1.542783221178627E+08, -5.306762674975131E+07, -1.014329255755521E+06,
2460798.500000000, A.D. 2025-May-03 00:00:00.0000, -1.515800103785679E+08, -6.608672765096374E+07, 7.521889358896986E+05,
2460805.500000000, A.D. 2025-May-10 00:00:00.0000, -1.472535687597028E+08, -7.839690484025240E+07, 2.510734794194769E+06,
2460812.500000000, A.D. 2025-May-17 00:00:00.0000, -1.413873094464269E+08, -8.988785996333700E+07, 4.243089883835565E+06,
2460819.500000000, A.D. 2025-May-24 00:00:00.0000, -1.340625922631955E+08, -1.004518235349156E+08, 5.931698467165336E+06,
2460826.500000000, A.D. 2025-May-31 00:00:00.0000, -1.253559016013527E+08, -1.099801679100905E+08, 7.559139251588516E+06,
2460833.500000000, A.D. 2025-Jun-07 00:00:00.0000, -1.153410358518900E+08, -1.183602688210396E+08, 9.107623081705905E+06,
2460840.500000000, A.D. 2025-Jun-14 00:00:00.0000, -1.040915578892294E+08, -1.254724030272678E+08, 1.055848268033016E+07,
2460847.500000000, A.D. 2025-Jun-21 00:00:00.0000, -9.168371189430656E+07, -1.311864986621500E+08, 1.189162035435215E+07,
2460854.500000000, A.D. 2025-Jun-28 00:00:00.0000, -7.820010150231463E+07, -1.353585619145568E+08, 1.308487679897844E+07,
2460861.500000000, A.D. 2025-Jul-05 00:00:00.0000, -6.373457443944666E+07, -1.378266111967889E+08, 1.411327835903811E+07,
2460868.500000000, A.D. 2025-Jul-12 00:00:00.0000, -4.839899444338236E+07, -1.384059740604999E+08, 1.494811076804908E+07,
2460875.500000000, A.D. 2025-Jul-19 00:00:00.0000, -3.233296727166669E+07, -1.368838737382478E+08, 1.555575706941303E+07,
2460882.500000000, A.D. 2025-Jul-26 00:00:00.0000, -1.571822808122441E+07, -1.330134412073883E+08, 1.589623190468957E+07,
2460889.500000000, A.D. 2025-Aug-02 00:00:00.0000, 1.199546293068420E+06, -1.265078432622536E+08, 1.592136130729932E+07,
2460896.500000000, A.D. 2025-Aug-09 00:00:00.0000, 1.807703897242325E+07, -1.170366136299249E+08, 1.557264789080731E+07,
2460903.500000000, A.D. 2025-Aug-16 00:00:00.0000, 3.442074593070403E+07, -1.042296959806901E+08, 1.477916616217185E+07,
2460910.500000000, A.D. 2025-Aug-23 00:00:00.0000, 4.950591996915484E+07, -8.770288595263550E+07, 1.345672400225283E+07,
2460917.500000000, A.D. 2025-Aug-30 00:00:00.0000, 6.225874774428732E+07, -6.713688985826816E+07, 1.151191956752373E+07,
2460924.500000000, A.D. 2025-Sep-06 00:00:00.0000, 7.111680742322338E+07, -4.247819442834486E+07, 8.860392359077364E+06,
2460931.500000000, A.D. 2025-Sep-13 00:00:00.0000, 7.398070886117661E+07, -1.436769466381287E+07, 5.478163324640988E+06,
2460938.500000000, A.D. 2025-Sep-20 00:00:00.0000, 6.860734260857685E+07, 1.520215118624247E+07, 1.503574979777163E+06,
2460945.500000000, A.D. 2025-Sep-27 00:00:00.0000, 5.388752311657785E+07, 4.259687158968381E+07, -2.662795052031817E+06,
2460952.500000000, A.D. 2025-Oct-04 00:00:00.0000, 3.132028881576620E+07, 6.381132086483617E+07, -6.444268794709411E+06,
2460959.500000000, A.D. 2025-Oct-11 00:00:00.0000, 4.549956529321743E+06, 7.673731294858794E+07, -9.395397968465868E+06,
2460966.500000000, A.D. 2025-Oct-18 00:00:00.0000, -2.282494998756364E+07, 8.174057570878890E+07, -1.138319658547703E+07,
2460973.500000000, A.D. 2025-Oct-25 00:00:00.0000, -4.853875957137662E+07, 8.042275224379216E+07, -1.249588212088577E+07,
2460980.500000000, A.D. 2025-Nov-01 00:00:00.0000, -7.154043181344461E+07, 7.448644119121005E+07, -1.289469600897164E+07,
2460987.500000000, A.D. 2025-Nov-08 00:00:00.0000, -9.148806989900106E+07, 6.531242309442510E+07, -1.273577330054746E+07,
2460994.500000000, A.D. 2025-Nov-15 00:00:00.0000, -1.083788676450187E+08, 5.392514895646842E+07, -1.214742423384435E+07,
2461001.500000000, A.D. 2025-Nov-22 00:00:00.0000, -1.223514964594090E+08, 4.106766613926923E+07, -1.122970734365398E+07,
2461008.500000000, A.D. 2025-Nov-29 00:00:00.0000, -1.335925389496290E+08, 2.728181200258371E+07, -1.005983401920299E+07,
2461015.500000000, A.D. 2025-Dec-06 00:00:00.0000, -1.422949890480787E+08, 1.296987611534441E+07, -8.697836873818083E+06,
2461022.500000000, A.D. 2025-Dec-13 00:00:00.0000, -1.486411629290091E+08, -1.562144573333217E+06, -7.191143747798169E+06,
2461029.500000000, A.D. 2025-Dec-20 00:00:00.0000, -1.527967365964715E+08, -1.607495021225816E+07, -5.577992610119966E+06,
2461036.500000000, A.D. 2025-Dec-27 00:00:00.0000, -1.549097326005313E+08, -3.037565372910928E+07, -3.889924768939279E+06,
2461043.500000000, A.D. 2026-Jan-03 00:00:00.0000, -1.551116118029543E+08, -4.430367620352040E+07, -2.153607596800208E+06,
2461050.500000000, A.D. 2026-Jan-10 00:00:00.0000, -1.535191743158149E+08, -5.772071939274298E+07, -3.921862533825338E+05,
2461057.500000000, A.D. 2026-Jan-17 00:00:00.0000, -1.502366977746581E+08, -7.050342920888177E+07, 1.373690168200158E+06,
2461064.500000000, A.D. 2026-Jan-24 00:00:00.0000, -1.453580839588297E+08, -8.253783258294588E+07, 3.125064429361798E+06,
2461071.500000000, A.D. 2026-Jan-31 00:00:00.0000, -1.389689510410376E+08, -9.371492916610928E+07, 4.844014425350893E+06,
2461078.500000000, A.D. 2026-Feb-07 00:00:00.0000, -1.311486941787628E+08, -1.039270078561335E+08, 6.513088886686146E+06,
2461085.500000000, A.D. 2026-Feb-14 00:00:00.0000, -1.219725883838482E+08, -1.130643754041078E+08, 8.114792575222649E+06,
2461092.500000000, A.D. 2026-Feb-21 00:00:00.0000, -1.115140495812942E+08, -1.210122547420904E+08, 9.631084892199144E+06,
2461099.500000000, A.D. 2026-Feb-28 00:00:00.0000, -9.984721988796148E+07, -1.276476504279342E+08, 1.104285863763810E+07,
2461106.500000000, A.D. 2026-Mar-07 00:00:00.0000, -8.705011341063052E+07, -1.328360019849212E+08, 1.232936459150632E+07,
2461113.500000000, A.D. 2026-Mar-14 00:00:00.0000, -7.320866154615849E+07, -1.364274555243207E+08, 1.346754292306650E+07,
2461120.500000000, A.D. 2026-Mar-21 00:00:00.0000, -5.842217007522389E+07, -1.382525887308927E+08, 1.443121563696062E+07,
2461127.500000000, A.D. 2026-Mar-28 00:00:00.0000, -4.281098483822957E+07, -1.381174592146202E+08, 1.519008465468937E+07,
2461134.500000000, A.D. 2026-Apr-04 00:00:00.0000, -2.652762365700709E+07, -1.357979547197538E+08, 1.570847022341528E+07,
2461141.500000000, A.D. 2026-Apr-11 00:00:00.0000, -9.773396220826617E+06, -1.310337211167710E+08, 1.594372371534261E+07,
2461148.500000000, A.D. 2026-Apr-18 00:00:00.0000, 7.176211374570888E+06, -1.235227150403330E+08, 1.584428329085921E+07,
2461155.500000000, A.D. 2026-Apr-25 00:00:00.0000, 2.393213444549583E+07, -1.129193481472786E+08, 1.534748328376461E+07,
2461162.500000000, A.D. 2026-May-02 00:00:00.0000, 3.993032879112811E+07, -9.884385971089599E+07, 1.437767807013146E+07,
2461169.500000000, A.D. 2026-May-09 00:00:00.0000, 5.433827233131388E+07, -8.092156635130610E+07, 1.284651690092292E+07,
2461176.500000000, A.D. 2026-May-16 00:00:00.0000, 6.592512161059474E+07, -5.889469870638354E+07, 1.066051378626658E+07,
2461183.500000000, A.D. 2026-May-23 00:00:00.0000, 7.293240874296688E+07, -3.289106427803592E+07, 7.748307861310773E+06,
2461190.500000000, A.D. 2026-May-30 00:00:00.0000, 7.312604313294405E+07, -3.949853942444988E+06, 4.129175715036597E+06,
2461197.500000000, A.D. 2026-Jun-06 00:00:00.0000, 6.447090049118733E+07, 2.533364829442776E+07, 2.739108448195085E+04,
2461204.500000000, A.D. 2026-Jun-13 00:00:00.0000, 4.666509066710332E+07, 5.095047379900901E+07, -4.069387018469427E+06,
2461211.500000000, A.D. 2026-Jun-20 00:00:00.0000, 2.215572861464872E+07, 6.934127977102016E+07, -7.593265788146604E+06,
2461218.500000000, A.D. 2026-Jun-27 00:00:00.0000, -5.178212686865407E+06, 7.933673541668332E+07, -1.020486638458984E+07,
2461225.500000000, A.D. 2026-Jul-04 00:00:00.0000, -3.215249935200629E+07, 8.190783718328629E+07, -1.186769704929305E+07,
2461232.500000000, A.D. 2026-Jul-11 00:00:00.0000, -5.698315248299525E+07, 7.878133028356698E+07, -1.270960942733489E+07,
2461239.500000000, A.D. 2026-Jul-18 00:00:00.0000, -7.892377936892293E+07, 7.156613468909077E+07, -1.289524402692858E+07,
2461246.500000000, A.D. 2026-Jul-25 00:00:00.0000, -9.778402970452920E+07, 6.151187882854149E+07, -1.257182435212590E+07,
2461253.500000000, A.D. 2026-Aug-01 00:00:00.0000, -1.136266903486780E+08, 4.953391875818443E+07, -1.185724130368946E+07,
2461260.500000000, A.D. 2026-Aug-08 00:00:00.0000, -1.266144627650097E+08, 3.629603434180745E+07, -1.084280775696234E+07,
2461267.500000000, A.D. 2026-Aug-15 00:00:00.0000, -1.369392378229896E+08, 2.228486603007827E+07, -9.599077211281365E+06,
2461274.500000000, A.D. 2026-Aug-22 00:00:00.0000, -1.447914110910489E+08, 7.864632062057536E+06, -8.181179374879654E+06,
2461281.500000000, A.D. 2026-Aug-29 00:00:00.0000, -1.503477519823075E+08, -6.684994954898978E+06, -6.632965870841784E+06,
2461288.500000000, A.D. 2026-Sep-05 00:00:00.0000, -1.537676655747289E+08, -2.114301084229124E+07, -4.990069045182057E+06,
$$EOE